KUIPER-00095            
1 65134U 25171C   25266.54207405  .00083874  00000+0  23306-2 0  9998
2 65134  51.8761 197.2687 0003800 319.7403  40.3301 15.36136250  7861
KUIPER-00096            
1 65135U 25171D   25266.53457697  .00089237  00000+0  24505-2 0  9999
2 65135  51.8762 197.2182 0003495 294.5317  65.5305 15.36474389  7868
KUIPER-00097            
1 65136U 25171E   25266.54349966  .00113426  00000+0  31333-2 0  9995
2 65136  51.8769 197.2782 0003864 309.5960  50.4684 15.36160095  7851
KUIPER-00098            
1 65137U 25171F   25266.98083349  .00056791  00000+0  15585-2 0  9996
2 65137  51.8762 194.9678 0004789 269.2798  90.7640 15.36698907  7274
KUIPER-00099            
1 65138U 25171G   25265.55260866  .00044113  00000+0  12191-2 0  9995
2 65138  51.8752 201.8954 0003957 275.8318  84.2217 15.36596939  7704
KUIPER-00100            
1 65139U 25171H   25266.53408120  .00078781  00000+0  21688-2 0  9991
2 65139  51.8766 197.2156 0004044 295.0529  65.0037 15.36455177  7859
KUIPER-00102            
1 65140U 25171J   25266.54291413  .00051005  00000+0  14311-2 0  9994
2 65140  51.8768 197.2706 0003593 311.1632  48.9044 15.36060753  7857
KUIPER-00103            
1 65141U 25171K   25267.00002315 -.00964752  00000+0 -34292-1 0  9991
2 65141  51.8785 195.1725 0004256 295.9352  24.9942 15.31005559  5543
