<?xml version="1.0" encoding="UTF-8"?>
<ndm xmlns:xsi="http://www.w3.org/2001/XMLSchema-instance" xsi:noNamespaceSchemaLocation="https://sanaregistry.org/r/ndmxml_unqualified/ndmxml-2.0.0-master-2.0.xsd">
<omm id="CCSDS_OMM_VERS" version="2.0">
<header><CREATION_DATE/><ORIGINATOR/></header><body><segment><metadata><OBJECT_NAME>KUIPER-00095</OBJECT_NAME><OBJECT_ID>2025-171C</OBJECT_ID><CENTER_NAME>EARTH</CENTER_NAME><REF_FRAME>TEME</REF_FRAME><TIME_SYSTEM>UTC</TIME_SYSTEM><MEAN_ELEMENT_THEORY>SGP4</MEAN_ELEMENT_THEORY></metadata><data><meanElements><EPOCH>2025-09-23T13:00:35.197920</EPOCH><MEAN_MOTION>15.36136250</MEAN_MOTION><ECCENTRICITY>.00038008</ECCENTRICITY><INCLINATION>51.8761</INCLINATION><RA_OF_ASC_NODE>197.2687</RA_OF_ASC_NODE><ARG_OF_PERICENTER>319.7403</ARG_OF_PERICENTER><MEAN_ANOMALY>40.3301</MEAN_ANOMALY></meanElements><tleParameters><EPHEMERIS_TYPE>0</EPHEMERIS_TYPE><CLASSIFICATION_TYPE>U</CLASSIFICATION_TYPE><NORAD_CAT_ID>65134</NORAD_CAT_ID><ELEMENT_SET_NO>999</ELEMENT_SET_NO><REV_AT_EPOCH>786</REV_AT_EPOCH><BSTAR>.23305936E-2</BSTAR><MEAN_MOTION_DOT>.83874E-3</MEAN_MOTION_DOT><MEAN_MOTION_DDOT>0</MEAN_MOTION_DDOT></tleParameters></data></segment></body></omm>
<omm id="CCSDS_OMM_VERS" version="2.0">
<header><CREATION_DATE/><ORIGINATOR/></header><body><segment><metadata><OBJECT_NAME>KUIPER-00096</OBJECT_NAME><OBJECT_ID>2025-171D</OBJECT_ID><CENTER_NAME>EARTH</CENTER_NAME><REF_FRAME>TEME</REF_FRAME><TIME_SYSTEM>UTC</TIME_SYSTEM><MEAN_ELEMENT_THEORY>SGP4</MEAN_ELEMENT_THEORY></metadata><data><meanElements><EPOCH>2025-09-23T12:49:47.450208</EPOCH><MEAN_MOTION>15.36474389</MEAN_MOTION><ECCENTRICITY>.0003495</ECCENTRICITY><INCLINATION>51.8762</INCLINATION><RA_OF_ASC_NODE>197.2182</RA_OF_ASC_NODE><ARG_OF_PERICENTER>294.5317</ARG_OF_PERICENTER><MEAN_ANOMALY>65.5305</MEAN_ANOMALY></meanElements><tleParameters><EPHEMERIS_TYPE>0</EPHEMERIS_TYPE><CLASSIFICATION_TYPE>U</CLASSIFICATION_TYPE><NORAD_CAT_ID>65135</NORAD_CAT_ID><ELEMENT_SET_NO>999</ELEMENT_SET_NO><REV_AT_EPOCH>786</REV_AT_EPOCH><BSTAR>.24504737E-2</BSTAR><MEAN_MOTION_DOT>.89237E-3</MEAN_MOTION_DOT><MEAN_MOTION_DDOT>0</MEAN_MOTION_DDOT></tleParameters></data></segment></body></omm>
<omm id="CCSDS_OMM_VERS" version="2.0">
<header><CREATION_DATE/><ORIGINATOR/></header><body><segment><metadata><OBJECT_NAME>KUIPER-00097</OBJECT_NAME><OBJECT_ID>2025-171E</OBJECT_ID><CENTER_NAME>EARTH</CENTER_NAME><REF_FRAME>TEME</REF_FRAME><TIME_SYSTEM>UTC</TIME_SYSTEM><MEAN_ELEMENT_THEORY>SGP4</MEAN_ELEMENT_THEORY></metadata><data><meanElements><EPOCH>2025-09-23T13:02:38.370624</EPOCH><MEAN_MOTION>15.36160095</MEAN_MOTION><ECCENTRICITY>.00038642</ECCENTRICITY><INCLINATION>51.8769</INCLINATION><RA_OF_ASC_NODE>197.2782</RA_OF_ASC_NODE><ARG_OF_PERICENTER>309.5960</ARG_OF_PERICENTER><MEAN_ANOMALY>50.4684</MEAN_ANOMALY></meanElements><tleParameters><EPHEMERIS_TYPE>0</EPHEMERIS_TYPE><CLASSIFICATION_TYPE>U</CLASSIFICATION_TYPE><NORAD_CAT_ID>65136</NORAD_CAT_ID><ELEMENT_SET_NO>999</ELEMENT_SET_NO><REV_AT_EPOCH>785</REV_AT_EPOCH><BSTAR>.31332814E-2</BSTAR><MEAN_MOTION_DOT>.113426E-2</MEAN_MOTION_DOT><MEAN_MOTION_DDOT>0</MEAN_MOTION_DDOT></tleParameters></data></segment></body></omm>
<omm id="CCSDS_OMM_VERS" version="2.0">
<header><CREATION_DATE/><ORIGINATOR/></header><body><segment><metadata><OBJECT_NAME>KUIPER-00098</OBJECT_NAME><OBJECT_ID>2025-171F</OBJECT_ID><CENTER_NAME>EARTH</CENTER_NAME><REF_FRAME>TEME</REF_FRAME><TIME_SYSTEM>UTC</TIME_SYSTEM><MEAN_ELEMENT_THEORY>SGP4</MEAN_ELEMENT_THEORY></metadata><data><meanElements><EPOCH>2025-09-23T23:32:24.013536</EPOCH><MEAN_MOTION>15.36698907</MEAN_MOTION><ECCENTRICITY>.00047891</ECCENTRICITY><INCLINATION>51.8762</INCLINATION><RA_OF_ASC_NODE>194.9678</RA_OF_ASC_NODE><ARG_OF_PERICENTER>269.2798</ARG_OF_PERICENTER><MEAN_ANOMALY>90.7640</MEAN_ANOMALY></meanElements><tleParameters><EPHEMERIS_TYPE>0</EPHEMERIS_TYPE><CLASSIFICATION_TYPE>U</CLASSIFICATION_TYPE><NORAD_CAT_ID>65137</NORAD_CAT_ID><ELEMENT_SET_NO>999</ELEMENT_SET_NO><REV_AT_EPOCH>727</REV_AT_EPOCH><BSTAR>.15585352E-2</BSTAR><MEAN_MOTION_DOT>.56791E-3</MEAN_MOTION_DOT><MEAN_MOTION_DDOT>0</MEAN_MOTION_DDOT></tleParameters></data></segment></body></omm>
<omm id="CCSDS_OMM_VERS" version="2.0">
<header><CREATION_DATE/><ORIGINATOR/></header><body><segment><metadata><OBJECT_NAME>KUIPER-00099</OBJECT_NAME><OBJECT_ID>2025-171G</OBJECT_ID><CENTER_NAME>EARTH</CENTER_NAME><REF_FRAME>TEME</REF_FRAME><TIME_SYSTEM>UTC</TIME_SYSTEM><MEAN_ELEMENT_THEORY>SGP4</MEAN_ELEMENT_THEORY></metadata><data><meanElements><EPOCH>2025-09-22T13:15:45.388224</EPOCH><MEAN_MOTION>15.36596939</MEAN_MOTION><ECCENTRICITY>.0003957</ECCENTRICITY><INCLINATION>51.8752</INCLINATION><RA_OF_ASC_NODE>201.8954</RA_OF_ASC_NODE><ARG_OF_PERICENTER>275.8318</ARG_OF_PERICENTER><MEAN_ANOMALY>84.2217</MEAN_ANOMALY></meanElements><tleParameters><EPHEMERIS_TYPE>0</EPHEMERIS_TYPE><CLASSIFICATION_TYPE>U</CLASSIFICATION_TYPE><NORAD_CAT_ID>65138</NORAD_CAT_ID><ELEMENT_SET_NO>999</ELEMENT_SET_NO><REV_AT_EPOCH>770</REV_AT_EPOCH><BSTAR>.12191288E-2</BSTAR><MEAN_MOTION_DOT>.44113E-3</MEAN_MOTION_DOT><MEAN_MOTION_DDOT>0</MEAN_MOTION_DDOT></tleParameters></data></segment></body></omm>
<omm id="CCSDS_OMM_VERS" version="2.0">
<header><CREATION_DATE/><ORIGINATOR/></header><body><segment><metadata><OBJECT_NAME>KUIPER-00100</OBJECT_NAME><OBJECT_ID>2025-171H</OBJECT_ID><CENTER_NAME>EARTH</CENTER_NAME><REF_FRAME>TEME</REF_FRAME><TIME_SYSTEM>UTC</TIME_SYSTEM><MEAN_ELEMENT_THEORY>SGP4</MEAN_ELEMENT_THEORY></metadata><data><meanElements><EPOCH>2025-09-23T12:49:04.615680</EPOCH><MEAN_MOTION>15.36455177</MEAN_MOTION><ECCENTRICITY>.00040447</ECCENTRICITY><INCLINATION>51.8766</INCLINATION><RA_OF_ASC_NODE>197.2156</RA_OF_ASC_NODE><ARG_OF_PERICENTER>295.0529</ARG_OF_PERICENTER><MEAN_ANOMALY>65.0037</MEAN_ANOMALY></meanElements><tleParameters><EPHEMERIS_TYPE>0</EPHEMERIS_TYPE><CLASSIFICATION_TYPE>U</CLASSIFICATION_TYPE><NORAD_CAT_ID>65139</NORAD_CAT_ID><ELEMENT_SET_NO>999</ELEMENT_SET_NO><REV_AT_EPOCH>785</REV_AT_EPOCH><BSTAR>.21688119E-2</BSTAR><MEAN_MOTION_DOT>.78781E-3</MEAN_MOTION_DOT><MEAN_MOTION_DDOT>0</MEAN_MOTION_DDOT></tleParameters></data></segment></body></omm>
<omm id="CCSDS_OMM_VERS" version="2.0">
<header><CREATION_DATE/><ORIGINATOR/></header><body><segment><metadata><OBJECT_NAME>KUIPER-00102</OBJECT_NAME><OBJECT_ID>2025-171J</OBJECT_ID><CENTER_NAME>EARTH</CENTER_NAME><REF_FRAME>TEME</REF_FRAME><TIME_SYSTEM>UTC</TIME_SYSTEM><MEAN_ELEMENT_THEORY>SGP4</MEAN_ELEMENT_THEORY></metadata><data><meanElements><EPOCH>2025-09-23T13:01:47.780832</EPOCH><MEAN_MOTION>15.36060753</MEAN_MOTION><ECCENTRICITY>.00035938</ECCENTRICITY><INCLINATION>51.8768</INCLINATION><RA_OF_ASC_NODE>197.2706</RA_OF_ASC_NODE><ARG_OF_PERICENTER>311.1632</ARG_OF_PERICENTER><MEAN_ANOMALY>48.9044</MEAN_ANOMALY></meanElements><tleParameters><EPHEMERIS_TYPE>0</EPHEMERIS_TYPE><CLASSIFICATION_TYPE>U</CLASSIFICATION_TYPE><NORAD_CAT_ID>65140</NORAD_CAT_ID><ELEMENT_SET_NO>999</ELEMENT_SET_NO><REV_AT_EPOCH>785</REV_AT_EPOCH><BSTAR>.14311183E-2</BSTAR><MEAN_MOTION_DOT>.51005E-3</MEAN_MOTION_DOT><MEAN_MOTION_DDOT>0</MEAN_MOTION_DDOT></tleParameters></data></segment></body></omm>
<omm id="CCSDS_OMM_VERS" version="2.0">
<header><CREATION_DATE/><ORIGINATOR/></header><body><segment><metadata><OBJECT_NAME>KUIPER-00103</OBJECT_NAME><OBJECT_ID>2025-171K</OBJECT_ID><CENTER_NAME>EARTH</CENTER_NAME><REF_FRAME>TEME</REF_FRAME><TIME_SYSTEM>UTC</TIME_SYSTEM><MEAN_ELEMENT_THEORY>SGP4</MEAN_ELEMENT_THEORY></metadata><data><meanElements><EPOCH>2025-09-24T00:00:02.000160</EPOCH><MEAN_MOTION>15.31005559</MEAN_MOTION><ECCENTRICITY>.0004256</ECCENTRICITY><INCLINATION>51.8785</INCLINATION><RA_OF_ASC_NODE>195.1725</RA_OF_ASC_NODE><ARG_OF_PERICENTER>295.9352</ARG_OF_PERICENTER><MEAN_ANOMALY>24.9942</MEAN_ANOMALY></meanElements><tleParameters><EPHEMERIS_TYPE>0</EPHEMERIS_TYPE><CLASSIFICATION_TYPE>U</CLASSIFICATION_TYPE><NORAD_CAT_ID>65141</NORAD_CAT_ID><ELEMENT_SET_NO>999</ELEMENT_SET_NO><REV_AT_EPOCH>554</REV_AT_EPOCH><BSTAR>-.34292086E-1</BSTAR><MEAN_MOTION_DOT>-.964752E-2</MEAN_MOTION_DOT><MEAN_MOTION_DDOT>0</MEAN_MOTION_DDOT></tleParameters></data></segment></body></omm>

</ndm>
